[{"OBJECT_NAME":"WGS F9 (USA 275)","OBJECT_ID":"2017-016A","EPOCH":"2026-03-02T17:28:52.140864","MEAN_MOTION":1.00270787,"ECCENTRICITY":5.79e-5,"INCLINATION":0.0235,"RA_OF_ASC_NODE":144.2289,"ARG_OF_PERICENTER":129.483,"MEAN_ANOMALY":137.0549,"EPHEMERIS_TYPE":0,"CLASSIFICATION_TYPE":"U","NORAD_CAT_ID":42075,"ELEMENT_SET_NO":999,"REV_AT_EPOCH":3282,"BSTAR":0,"MEAN_MOTION_DOT":0,"MEAN_MOTION_DDOT":0},{"OBJECT_NAME":"SES-10","OBJECT_ID":"2017-017A","EPOCH":"2026-03-02T13:47:47.841792","MEAN_MOTION":1.00271121,"ECCENTRICITY":0.0002527,"INCLINATION":0.0179,"RA_OF_ASC_NODE":73.7682,"ARG_OF_PERICENTER":270.42,"MEAN_ANOMALY":316.2019,"EPHEMERIS_TYPE":0,"CLASSIFICATION_TYPE":"U","NORAD_CAT_ID":42432,"ELEMENT_SET_NO":999,"REV_AT_EPOCH":3268,"BSTAR":0,"MEAN_MOTION_DOT":-2.9e-6,"MEAN_MOTION_DDOT":0},{"OBJECT_NAME":"CHINASAT 16 (SJ-13)","OBJECT_ID":"2017-018A","EPOCH":"2026-03-02T21:01:04.318752","MEAN_MOTION":1.00271787,"ECCENTRICITY":0.0005767,"INCLINATION":0.0416,"RA_OF_ASC_NODE":96.408,"ARG_OF_PERICENTER":164.196,"MEAN_ANOMALY":325.8049,"EPHEMERIS_TYPE":0,"CLASSIFICATION_TYPE":"U","NORAD_CAT_ID":42662,"ELEMENT_SET_NO":999,"REV_AT_EPOCH":3268,"BSTAR":0,"MEAN_MOTION_DOT":-3.68e-6,"MEAN_MOTION_DDOT":0},{"OBJECT_NAME":"KOREASAT 7","OBJECT_ID":"2017-023A","EPOCH":"2026-03-02T17:15:38.765088","MEAN_MOTION":1.00272343,"ECCENTRICITY":0.0001772,"INCLINATION":0.0312,"RA_OF_ASC_NODE":22.6224,"ARG_OF_PERICENTER":346.1669,"MEAN_ANOMALY":166.5011,"EPHEMERIS_TYPE":0,"CLASSIFICATION_TYPE":"U","NORAD_CAT_ID":42691,"ELEMENT_SET_NO":999,"REV_AT_EPOCH":3230,"BSTAR":0,"MEAN_MOTION_DOT":-3.79e-6,"MEAN_MOTION_DDOT":0},{"OBJECT_NAME":"SGDC","OBJECT_ID":"2017-023B","EPOCH":"2026-03-01T18:21:06.852960","MEAN_MOTION":1.00270175,"ECCENTRICITY":0.000276,"INCLINATION":0.0233,"RA_OF_ASC_NODE":129.1269,"ARG_OF_PERICENTER":222.7846,"MEAN_ANOMALY":8.0841,"EPHEMERIS_TYPE":0,"CLASSIFICATION_TYPE":"U","NORAD_CAT_ID":42692,"ELEMENT_SET_NO":999,"REV_AT_EPOCH":3233,"BSTAR":0,"MEAN_MOTION_DOT":0,"MEAN_MOTION_DDOT":0},{"OBJECT_NAME":"GSAT-9","OBJECT_ID":"2017-024A","EPOCH":"2026-03-02T15:58:52.794048","MEAN_MOTION":1.0027193,"ECCENTRICITY":0.0002026,"INCLINATION":0.109,"RA_OF_ASC_NODE":281.0934,"ARG_OF_PERICENTER":63.0585,"MEAN_ANOMALY":153.331,"EPHEMERIS_TYPE":0,"CLASSIFICATION_TYPE":"U","NORAD_CAT_ID":42695,"ELEMENT_SET_NO":999,"REV_AT_EPOCH":3223,"BSTAR":0,"MEAN_MOTION_DOT":-3.03e-6,"MEAN_MOTION_DDOT":0},{"OBJECT_NAME":"INMARSAT 5-F4","OBJECT_ID":"2017-025A","EPOCH":"2026-03-02T16:05:42.120960","MEAN_MOTION":1.00271484,"ECCENTRICITY":3.04e-5,"INCLINATION":0.0189,"RA_OF_ASC_NODE":124.3225,"ARG_OF_PERICENTER":194.9084,"MEAN_ANOMALY":139.1229,"EPHEMERIS_TYPE":0,"CLASSIFICATION_TYPE":"U","NORAD_CAT_ID":42698,"ELEMENT_SET_NO":999,"REV_AT_EPOCH":3221,"BSTAR":0,"MEAN_MOTION_DOT":5.9e-7,"MEAN_MOTION_DDOT":0},{"OBJECT_NAME":"SES-15","OBJECT_ID":"2017-026A","EPOCH":"2026-03-02T16:55:25.346208","MEAN_MOTION":1.00271134,"ECCENTRICITY":7.08e-5,"INCLINATION":0.0247,"RA_OF_ASC_NODE":275.7633,"ARG_OF_PERICENTER":61.025,"MEAN_ANOMALY":308.3599,"EPHEMERIS_TYPE":0,"CLASSIFICATION_TYPE":"U","NORAD_CAT_ID":42709,"ELEMENT_SET_NO":999,"REV_AT_EPOCH":636,"BSTAR":0,"MEAN_MOTION_DOT":4.3e-7,"MEAN_MOTION_DDOT":0},{"OBJECT_NAME":"QZS-2 (MICHIBIKI-2)","OBJECT_ID":"2017-028A","EPOCH":"2026-03-02T19:52:38.716032","MEAN_MOTION":1.0026242,"ECCENTRICITY":0.0745894,"INCLINATION":39.5927,"RA_OF_ASC_NODE":244.7025,"ARG_OF_PERICENTER":270.3157,"MEAN_ANOMALY":85.4192,"EPHEMERIS_TYPE":0,"CLASSIFICATION_TYPE":"U","NORAD_CAT_ID":42738,"ELEMENT_SET_NO":999,"REV_AT_EPOCH":656,"BSTAR":0,"MEAN_MOTION_DOT":-1.75e-6,"MEAN_MOTION_DDOT":0},{"OBJECT_NAME":"VIASAT-2","OBJECT_ID":"2017-029A","EPOCH":"2026-03-02T13:46:55.424640","MEAN_MOTION":1.00271541,"ECCENTRICITY":5.29e-5,"INCLINATION":0.0256,"RA_OF_ASC_NODE":248.135,"ARG_OF_PERICENTER":121.9999,"MEAN_ANOMALY":287.0371,"EPHEMERIS_TYPE":0,"CLASSIFICATION_TYPE":"U","NORAD_CAT_ID":42740,"ELEMENT_SET_NO":999,"REV_AT_EPOCH":3213,"BSTAR":0,"MEAN_MOTION_DOT":-2.82e-6,"MEAN_MOTION_DDOT":0},{"OBJECT_NAME":"EUTELSAT 172B","OBJECT_ID":"2017-029B","EPOCH":"2026-03-02T13:13:26.772384","MEAN_MOTION":1.00271409,"ECCENTRICITY":1.84e-5,"INCLINATION":0.0189,"RA_OF_ASC_NODE":151.7042,"ARG_OF_PERICENTER":131.3792,"MEAN_ANOMALY":247.5727,"EPHEMERIS_TYPE":0,"CLASSIFICATION_TYPE":"U","NORAD_CAT_ID":42741,"ELEMENT_SET_NO":999,"REV_AT_EPOCH":3267,"BSTAR":0,"MEAN_MOTION_DOT":-2.3e-7,"MEAN_MOTION_DDOT":0},{"OBJECT_NAME":"GSAT-19","OBJECT_ID":"2017-031A","EPOCH":"2026-03-02T19:44:38.776128","MEAN_MOTION":1.00272288,"ECCENTRICITY":0.0003688,"INCLINATION":0.0752,"RA_OF_ASC_NODE":90.8965,"ARG_OF_PERICENTER":292.7529,"MEAN_ANOMALY":120.9621,"EPHEMERIS_TYPE":0,"CLASSIFICATION_TYPE":"U","NORAD_CAT_ID":42747,"ELEMENT_SET_NO":999,"REV_AT_EPOCH":3208,"BSTAR":0,"MEAN_MOTION_DOT":1.09e-6,"MEAN_MOTION_DDOT":0},{"OBJECT_NAME":"ECHOSTAR 21","OBJECT_ID":"2017-032A","EPOCH":"2026-03-02T17:35:14.028864","MEAN_MOTION":1.0027159,"ECCENTRICITY":0.0002784,"INCLINATION":1.794,"RA_OF_ASC_NODE":348.7312,"ARG_OF_PERICENTER":335.3454,"MEAN_ANOMALY":110.4679,"EPHEMERIS_TYPE":0,"CLASSIFICATION_TYPE":"U","NORAD_CAT_ID":42749,"ELEMENT_SET_NO":999,"REV_AT_EPOCH":3203,"BSTAR":0,"MEAN_MOTION_DOT":5.0e-7,"MEAN_MOTION_DDOT":0},{"OBJECT_NAME":"BULGARIASAT-1","OBJECT_ID":"2017-038A","EPOCH":"2026-03-02T14:07:30.950688","MEAN_MOTION":1.00272665,"ECCENTRICITY":0.0003074,"INCLINATION":0.051,"RA_OF_ASC_NODE":273.2846,"ARG_OF_PERICENTER":81.0641,"MEAN_ANOMALY":19.781,"EPHEMERIS_TYPE":0,"CLASSIFICATION_TYPE":"U","NORAD_CAT_ID":42801,"ELEMENT_SET_NO":999,"REV_AT_EPOCH":3176,"BSTAR":0,"MEAN_MOTION_DOT":-6.0e-8,"MEAN_MOTION_DDOT":0},{"OBJECT_NAME":"HELLAS-SAT 3","OBJECT_ID":"2017-040A","EPOCH":"2026-03-02T12:35:24.780768","MEAN_MOTION":1.00274248,"ECCENTRICITY":0.0004958,"INCLINATION":0.0719,"RA_OF_ASC_NODE":54.1194,"ARG_OF_PERICENTER":304.7268,"MEAN_ANOMALY":29.2977,"EPHEMERIS_TYPE":0,"CLASSIFICATION_TYPE":"U","NORAD_CAT_ID":42814,"ELEMENT_SET_NO":999,"REV_AT_EPOCH":3173,"BSTAR":0,"MEAN_MOTION_DOT":1.35e-6,"MEAN_MOTION_DDOT":0},{"OBJECT_NAME":"GSAT-17","OBJECT_ID":"2017-040B","EPOCH":"2026-03-02T20:19:43.119840","MEAN_MOTION":1.00270422,"ECCENTRICITY":0.0005186,"INCLINATION":0.0419,"RA_OF_ASC_NODE":294.2771,"ARG_OF_PERICENTER":352.2976,"MEAN_ANOMALY":272.4761,"EPHEMERIS_TYPE":0,"CLASSIFICATION_TYPE":"U","NORAD_CAT_ID":42815,"ELEMENT_SET_NO":999,"REV_AT_EPOCH":3172,"BSTAR":0,"MEAN_MOTION_DOT":-2.74e-6,"MEAN_MOTION_DDOT":0},{"OBJECT_NAME":"INTELSAT 35E (IS-35E)","OBJECT_ID":"2017-041A","EPOCH":"2026-03-02T17:22:30.250272","MEAN_MOTION":1.00271311,"ECCENTRICITY":0.0002257,"INCLINATION":0.0366,"RA_OF_ASC_NODE":260.8184,"ARG_OF_PERICENTER":77.8204,"MEAN_ANOMALY":47.9592,"EPHEMERIS_TYPE":0,"CLASSIFICATION_TYPE":"U","NORAD_CAT_ID":42818,"ELEMENT_SET_NO":999,"REV_AT_EPOCH":3174,"BSTAR":0,"MEAN_MOTION_DOT":-2.55e-6,"MEAN_MOTION_DDOT":0}]
