WGS F9 (USA 275)        
1 42075U 17016A   26061.72838126  .00000000  00000+0  00000+0 0  9993
2 42075   0.0235 144.2289 0000579 129.4830 137.0549  1.00270787 32824
SES-10                  
1 42432U 17017A   26061.57485928 -.00000290  00000+0  00000+0 0  9994
2 42432   0.0179  73.7682 0002527 270.4200 316.2019  1.00271121 32684
CHINASAT 16 (SJ-13)     
1 42662U 17018A   26061.87574443 -.00000368  00000+0  00000+0 0  9990
2 42662   0.0416  96.4080 0005767 164.1960 325.8049  1.00271787 32685
KOREASAT 7              
1 42691U 17023A   26061.71919867 -.00000379  00000+0  00000+0 0  9996
2 42691   0.0312  22.6224 0001772 346.1669 166.5011  1.00272343 32300
SGDC                    
1 42692U 17023B   26060.76466265  .00000000  00000+0  00000+0 0  9990
2 42692   0.0233 129.1269 0002760 222.7846   8.0841  1.00270175 32334
GSAT-9                  
1 42695U 17024A   26061.66588882 -.00000303  00000+0  00000+0 0  9991
2 42695   0.1090 281.0934 0002026  63.0585 153.3310  1.00271930 32231
INMARSAT 5-F4           
1 42698U 17025A   26061.67062640  .00000059  00000+0  00000+0 0  9992
2 42698   0.0189 124.3225 0000304 194.9084 139.1229  1.00271484 32212
SES-15                  
1 42709U 17026A   26061.70515447  .00000043  00000+0  00000+0 0  9991
2 42709   0.0247 275.7633 0000708  61.0250 308.3599  1.00271134  6360
QZS-2 (MICHIBIKI-2)     
1 42738U 17028A   26061.82822588 -.00000175  00000+0  00000+0 0  9992
2 42738  39.5927 244.7025 0745894 270.3157  85.4192  1.00262420  6560
VIASAT-2                
1 42740U 17029A   26061.57425260 -.00000282  00000+0  00000+0 0  9993
2 42740   0.0256 248.1350 0000529 121.9999 287.0371  1.00271541 32139
EUTELSAT 172B           
1 42741U 17029B   26061.55100431 -.00000023  00000+0  00000+0 0  9995
2 42741   0.0189 151.7042 0000184 131.3792 247.5727  1.00271409 32673
GSAT-19                 
1 42747U 17031A   26061.82267102  .00000109  00000+0  00000+0 0  9997
2 42747   0.0752  90.8965 0003688 292.7529 120.9621  1.00272288 32082
ECHOSTAR 21             
1 42749U 17032A   26061.73280126  .00000050  00000+0  00000+0 0  9996
2 42749   1.7940 348.7312 0002784 335.3454 110.4679  1.00271590 32036
BULGARIASAT-1           
1 42801U 17038A   26061.58855267 -.00000006  00000+0  00000+0 0  9990
2 42801   0.0510 273.2846 0003074  81.0641  19.7810  1.00272665 31761
HELLAS-SAT 3            
1 42814U 17040A   26061.52459237  .00000135  00000+0  00000+0 0  9990
2 42814   0.0719  54.1194 0004958 304.7268  29.2977  1.00274248 31736
GSAT-17                 
1 42815U 17040B   26061.84702685 -.00000274  00000+0  00000+0 0  9999
2 42815   0.0419 294.2771 0005186 352.2976 272.4761  1.00270422 31722
INTELSAT 35E (IS-35E)   
1 42818U 17041A   26061.72396123 -.00000255  00000+0  00000+0 0  9995
2 42818   0.0366 260.8184 0002257  77.8204  47.9592  1.00271311 31740
